     2.10           GLONASS NAV DATA                        RINEX VERSION / TYPE
GS10 V12.10                             2023 12 09 23:59    PGM / RUN BY / DATE 
  2023    12    10   -1.071020960808D-08                    CORR TO SYSTEM TIME 
    18                                                      LEAP SECONDS        
                                                            END OF HEADER       
20 23 12 10 10 45  0.0-1.049218699336D-04-0.000000000000D+00 3.780000000000D+04
    3.611449218750D+03 7.218074798584D-02 0.000000000000D+00 0.000000000000D+00
   -2.406772705078D+04-1.080288887024D+00 1.862645149231D-09 2.000000000000D+00
    7.720912109375D+03-3.404545783997D+00-9.313225746155D-10 0.000000000000D+00
 5 23 12 10 10 45  0.0 1.235641539097D-04 9.094947017729D-13 3.780000000000D+04
    6.629596679688D+03 2.249357223511D+00-9.313225746155D-10 0.000000000000D+00
   -8.509792480469D+03 2.227559089661D+00 9.313225746155D-10 1.000000000000D+00
    2.312325195313D+04 1.720399856567D-01-1.862645149231D-09 0.000000000000D+00
15 23 12 10 10 45  0.0 8.406396955252D-05-0.000000000000D+00 3.780000000000D+04
    2.461637109375D+04-6.155242919922D-01 3.725290298462D-09 0.000000000000D+00
   -5.060668945313D+03 3.082656860352D-02-0.000000000000D+00 0.000000000000D+00
    4.391372558594D+03 3.496865272522D+00-3.725290298462D-09 0.000000000000D+00
22 23 12 10 10 45  0.0 9.757000952959D-05 1.818989403546D-12 3.885000000000D+04
   -1.234130615234D+04 8.986215591431D-01-4.656612873077D-09 0.000000000000D+00
    5.683978027344D+03-2.812827110291D+00 0.000000000000D+00-3.000000000000D+00
    2.161716894531D+04 1.255429267883D+00-0.000000000000D+00 0.000000000000D+00
 3 23 12 10 11 15  0.0 9.063538163900D-05 0.000000000000D+00 3.960000000000D+04
    1.921996679688D+04-3.114643096924D-01 1.862645149231D-09 0.000000000000D+00
    1.629618847656D+04-4.408626556396D-01-2.793967723846D-09 5.000000000000D+00
   -3.687984375000D+03-3.536300659180D+00-9.313225746155D-10 0.000000000000D+00
 4 23 12 10 11 15  0.0 2.146139740944D-04 1.818989403546D-12 3.960000000000D+04
    2.054233544922D+04 1.507596969604D+00 9.313225746155D-10 0.000000000000D+00
    7.927056152344D+03 9.255933761597D-01-1.862645149231D-09 6.000000000000D+00
    1.288471630859D+04-2.980711936951D+00-2.793967723846D-09 0.000000000000D+00
21 23 12 10 11 15  0.0-5.989242345095D-05-2.728484105319D-12 3.960000000000D+04
   -6.219197265625D+03 1.701707839966D-01-1.862645149231D-09 0.000000000000D+00
   -1.671078271484D+04-2.497784614563D+00 1.862645149231D-09 4.000000000000D+00
    1.823558300781D+04-2.234182357788D+00-9.313225746155D-10 0.000000000000D+00
14 23 12 10 11 15  0.0 2.571474760771D-05 0.000000000000D+00 3.960000000000D+04
    1.175257714844D+04-2.728018760681D+00-9.313225746155D-10 0.000000000000D+00
    6.269569335938D+03 1.191136360168D+00-0.000000000000D+00-7.000000000000D+00
    2.176374853516D+04 1.128852844238D+00-2.793967723846D-09 0.000000000000D+00
13 23 12 10 11 15  0.0-4.218518733978D-05-0.000000000000D+00 3.960000000000D+04
   -8.145481933594D+03-2.411217689514D+00-3.725290298462D-09 0.000000000000D+00
    1.410998095703D+04 1.192362785339D+00-0.000000000000D+00-2.000000000000D+00
    1.961047460938D+04-1.857034683228D+00-0.000000000000D+00 0.000000000000D+00
 5 23 12 10 11 15  0.0 1.235650852323D-04 9.094947017729D-13 3.960000000000D+04
    1.093371923828D+04 2.491001129150D+00-0.000000000000D+00 0.000000000000D+00
   -4.836999511719D+03 1.822120666504D+00 0.000000000000D+00 1.000000000000D+00
    2.253583251953D+04-8.205909729004D-01-2.793967723846D-09 0.000000000000D+00
15 23 12 10 11 15  0.0 8.406396955252D-05-0.000000000000D+00 3.960000000000D+04
    2.281540771484D+04-1.356564521790D+00 2.793967723846D-09 0.000000000000D+00
   -4.647086425781D+03 4.588956832886D-01-9.313225746155D-10 0.000000000000D+00
    1.043474902344D+04 3.174439430237D+00-3.725290298462D-09 0.000000000000D+00
22 23 12 10 11 15  0.0 9.757373481989D-05 1.818989403546D-12 3.960000000000D+04
   -1.105908837891D+04 5.061655044556D-01-3.725290298462D-09 0.000000000000D+00
    3.182148437500D+02-3.101862907410D+00 9.313225746155D-10-3.000000000000D+00
    2.301482470703D+04 2.875413894653D-01-0.000000000000D+00 0.000000000000D+00
16 23 12 10 11 15  0.0 2.138689160347D-05 0.000000000000D+00 4.008000000000D+04
    2.071700488281D+04 8.221807479858D-01 5.587935447693D-09 0.000000000000D+00
   -1.308233105469D+04-5.568227767944D-01-0.000000000000D+00-1.000000000000D+00
   -7.146267089844D+03 3.397749900818D+00-1.862645149231D-09 0.000000000000D+00
 3 23 12 10 11 45  0.0 9.063538163900D-05 0.000000000000D+00 4.140000000000D+04
    1.794598046875D+04-1.112287521362D+00 1.862645149231D-09 0.000000000000D+00
    1.515128320313D+04-7.897167205811D-01-2.793967723846D-09 5.000000000000D+00
   -9.827311523438D+03-3.240597724915D+00-0.000000000000D+00 0.000000000000D+00
16 23 12 10 11 45  0.0 2.138782292604D-05 9.094947017729D-13 4.140000000000D+04
    2.145062792969D+04 4.067420959473D-03 4.656612873077D-09 0.000000000000D+00
   -1.380893066406D+04-2.105455398560D-01-9.313225746155D-10-1.000000000000D+00
   -8.333916015625D+02 3.571080207825D+00-2.793967723846D-09 0.000000000000D+00
 4 23 12 10 11 45  0.0 2.146167680621D-04 1.818989403546D-12 4.140000000000D+04
    2.277686181641D+04 9.355430603027D-01 9.313225746155D-10 0.000000000000D+00
    9.023281250000D+03 3.113231658936D-01-2.793967723846D-09 6.000000000000D+00
    7.090667968750D+03-3.415377616882D+00-2.793967723846D-09 0.000000000000D+00
21 23 12 10 11 45  0.0-5.989335477352D-05-2.728484105319D-12 4.140000000000D+04
   -6.269902343750D+03-1.981019973755D-01-0.000000000000D+00 0.000000000000D+00
   -2.066532617188D+04-1.857657432556D+00 1.862645149231D-09 4.000000000000D+00
    1.356066503906D+04-2.926484107971D+00-9.313225746155D-10 0.000000000000D+00
14 23 12 10 11 45  0.0 2.571474760771D-05 0.000000000000D+00 4.140000000000D+04
    6.856108398438D+03-2.664731979370D+00-1.862645149231D-09 0.000000000000D+00
    8.845354003906D+03 1.653599739075D+00-0.000000000000D+00-7.000000000000D+00
    2.292901855469D+04 1.574611663818D-01-1.862645149231D-09 0.000000000000D+00
 5 23 12 10 11 45  0.0 1.235660165548D-04 9.094947017729D-13 4.140000000000D+04
    1.543048193359D+04 2.456235885620D+00 0.000000000000D+00 0.000000000000D+00
   -2.033092285156D+03 1.279117584229D+00-0.000000000000D+00 1.000000000000D+00
    2.020690673828D+04-1.750407218933D+00-2.793967723846D-09 0.000000000000D+00
15 23 12 10 11 45  0.0 8.406303822994D-05-0.000000000000D+00 4.140000000000D+04
    1.986187255859D+04-1.883583068848D+00 9.313225746155D-10 0.000000000000D+00
   -3.324362792969D+03 1.026491165161D+00-9.313225746155D-10 0.000000000000D+00
    1.567192871094D+04 2.606936454773D+00-3.725290298462D-09 0.000000000000D+00
22 23 12 10 11 45  0.0 9.757746011019D-05 1.818989403546D-12 4.140000000000D+04
   -1.055978710938D+04 4.627990722656D-02-2.793967723846D-09 0.000000000000D+00
   -5.301965332031D+03-3.091153144836D+00 1.862645149231D-09-3.000000000000D+00
    2.263915820313D+04-7.022247314453D-01-0.000000000000D+00 0.000000000000D+00
23 23 12 10 11 45  0.0-1.052450388670D-04-9.094947017729D-13 4.173000000000D+04
   -8.730772949219D+03 1.438884735107D-01-4.656612873077D-09 0.000000000000D+00
    1.414538427734D+04-2.652773857117D+00 0.000000000000D+00 3.000000000000D+00
    1.934730908203D+04 2.004466056824D+00 0.000000000000D+00 0.000000000000D+00
 6 23 12 10 11 45  0.0-1.413542777300D-04-9.094947017729D-13 4.176000000000D+04
   -4.404184570313D+03 2.548767089844D+00-1.862645149231D-09 0.000000000000D+00
   -1.357210009766D+04 1.377898216248D+00 1.862645149231D-09-4.000000000000D+00
    2.113721679688D+04 1.412327766418D+00-9.313225746155D-10 0.000000000000D+00
16 23 12 10 12 15  0.0 2.138875424862D-05 9.094947017729D-13 4.320000000000D+04
    2.080375683594D+04-6.946287155151D-01 3.725290298462D-09 0.000000000000D+00
   -1.371176220703D+04 3.486223220825D-01-1.862645149231D-09-1.000000000000D+00
    5.543810058594D+03 3.468772888184D+00-3.725290298462D-09 0.000000000000D+00
 4 23 12 10 12 15  0.0 2.146195620298D-04 1.818989403546D-12 4.320000000000D+04
    2.379023193359D+04 1.645555496216D-01 9.313225746155D-10 0.000000000000D+00
    9.143295410156D+03-1.448659896851D-01-2.793967723846D-09 6.000000000000D+00
    7.481391601563D+02-3.586093902588D+00-1.862645149231D-09 0.000000000000D+00
14 23 12 10 12 15  0.0 2.571474760771D-05 0.000000000000D+00 4.320000000000D+04
    2.318359375000D+03-2.338101387024D+00-0.000000000000D+00 0.000000000000D+00
    1.213105322266D+04 1.964368820190D+00 0.000000000000D+00-7.000000000000D+00
    2.232314160156D+04-8.263416290283D-01-9.313225746155D-10 0.000000000000D+00
 5 23 12 10 12 15  0.0 1.235669478774D-04 0.000000000000D+00 4.320000000000D+04
    1.959725927734D+04 2.124882698059D+00 0.000000000000D+00 0.000000000000D+00
   -2.496948242188D+02 7.069540023804D-01-9.313225746155D-10 1.000000000000D+00
    1.631544140625D+04-2.545442581177D+00-2.793967723846D-09 0.000000000000D+00
 6 23 12 10 12 15  0.0-1.413580030203D-04-1.818989403546D-12 4.320000000000D+04
    5.734873046875D+02 2.940466880798D+00-9.313225746155D-10 0.000000000000D+00
   -1.134225341797D+04 1.070016860962D+00 9.313225746155D-10-4.000000000000D+00
    2.282884960938D+04 4.549684524536D-01-1.862645149231D-09 0.000000000000D+00
23 23 12 10 12 15  0.0-1.052469015121D-04-9.094947017729D-13 4.320000000000D+04
   -8.869768066406D+03-3.138313293457D-01-3.725290298462D-09 0.000000000000D+00
    8.992432128906D+03-3.023668289185D+00 1.862645149231D-09 3.000000000000D+00
    2.216084814453D+04 1.101405143738D+00-0.000000000000D+00 0.000000000000D+00
